OBJECT_NAME,OBJECT_ID,EPOCH,MEAN_MOTION,ECCENTRICITY,INCLINATION,RA_OF_ASC_NODE,ARG_OF_PERICENTER,MEAN_ANOMALY,EPHEMERIS_TYPE,CLASSIFICATION_TYPE,NORAD_CAT_ID,ELEMENT_SET_NO,REV_AT_EPOCH,BSTAR,MEAN_MOTION_DOT,MEAN_MOTION_DDOT
OPS 6582 (TRANSIT 5B-5),1964-083D,2026-07-17T21:59:14.578080,13.57015257,.00413489,90.0759,203.2851,185.0963,241.9508,0,U,965,999,4778,.32576002E-4,.33E-6,0
LES-1,1965-008C,2026-07-17T18:15:53.270208,9.88354837,.0015278,32.1482,332.2869,19.7892,340.3196,0,U,1002,999,21921,.96086071E-3,.16E-6,0
SOLRAD 7B,1965-016D,2026-07-17T22:39:52.979616,13.94978764,.00184541,70.0777,170.8734,79.2751,281.0432,0,U,1291,999,12099,.14257642E-4,-.33E-6,0
SECOR 4 (EGRS 4),1965-027B,2026-07-17T22:15:25.140384,12.92668163,.00326864,90.2493,16.2689,118.6352,37.6788,0,U,1315,999,89089,-.1501078E-3,-.33E-6,0
TIROS 10,1965-051A,2026-07-17T22:17:10.087008,14.41640079,.00549292,98.5070,318.1291,348.0239,11.9641,0,U,1430,999,20034,.26706969E-4,.43E-6,0
ALOUETTE 2,1965-098A,2026-07-17T13:07:51.276864,12.28376148,.1330892,79.7965,250.8201,170.9619,191.8249,0,U,1804,999,68300,.8521E-4,.274E-5,0
OV3-3,1966-070A,2026-07-17T21:59:56.928768,13.46288282,.10083873,81.3272,303.8872,77.9284,293.2876,0,U,2389,999,60310,.33392732E-3,.7574E-4,0
SECOR 7 (EGRS 7),1966-077B,2026-07-16T04:36:45.007776,8.59615204,.00109815,90.3355,277.7833,30.0122,330.1357,0,U,2411,999,87987,.13417377E-1,.29E-6,0
ERS 15,1966-077C,2026-07-17T14:34:17.283936,8.59079537,.00068782,90.3365,277.5928,40.8246,319.3119,0,U,2412,999,39307,0,.2E-7,0
ISIS 1,1969-009A,2026-07-17T13:16:03.933120,11.30436694,.1707169,88.4452,141.0656,186.8958,170.5514,0,U,3669,999,36320,.37978E-4,.65E-6,0
SECOR 13 (EGRS 13),1969-037B,2026-07-17T22:16:29.461728,13.42978055,.00395094,99.6442,69.0747,174.6999,202.7779,0,U,3891,999,80588,.15906327E-4,-.33E-6,0
ATS 5,1969-069A,2026-07-17T20:22:44.308416,0.99488281,.00052617,0.2971,137.8207,137.2999,21.5265,0,U,4068,999,4663,0,.112E-5,0
OPS 7613 (P/L 4),1969-082E,2026-07-17T21:56:08.424096,13.96000661,.00179471,70.0147,38.2496,90.1368,8.9715,0,U,4237,999,89059,.27625396E-4,-.15E-6,0
OPS 7613 (P/L 1),1969-082B,2026-07-17T11:25:11.741376,13.99203474,.0018601,70.0087,259.9474,17.9413,342.2347,0,U,4256,999,89470,.28945E-4,-.11E-6,0
SHINSEI (MS-F2),1971-080A,2026-07-17T17:30:11.433600,12.74254923,.0640224,32.0595,330.9735,241.0471,112.4465,0,U,5485,999,55315,.84013153E-4,.74E-6,0
PROSPERO (BLACK ARROW),1971-093A,2026-07-17T15:20:04.747776,14.01695545,.05020591,82.0375,264.0998,139.7274,224.2248,0,U,5580,999,75279,.10185888E-3,.505E-5,0
OPS 7898 (P/L 2),1971-110C,2026-07-17T07:00:54.719136,13.74760999,.0006164,69.9909,300.7915,147.6237,212.5237,0,U,5680,999,35235,.40934E-4,-.11E-6,0
NOAA 2 (ITOS-D),1972-082A,2026-07-17T22:28:50.988000,12.53216004,.00045769,102.0076,217.8448,110.3371,311.0823,0,U,6235,999,45880,.85951304E-4,-.33E-6,0
OSCAR 7 (AO-7),1974-089B,2026-07-17T22:40:32.498112,12.53698623,.0012645,101.9906,212.5120,73.3038,347.7353,0,U,7530,999,36437,.2403953E-5,-.46E-6,0
TIROS N,1978-096A,2026-07-17T22:38:58.537248,14.19383004,.00110738,98.4530,218.6030,147.5244,212.6617,0,U,11060,999,68311,.4134315E-4,.46E-6,0
PHASE 3B (AO-10),1983-058B,2026-07-13T02:29:46.528800,2.05872336,.60022234,25.9345,215.2934,122.7887,309.2966,0,U,14129,999,29602,0,-.187E-5,0
HILAT,1983-063A,2026-07-17T21:51:42.181632,14.38728502,.00386585,82.0254,132.4656,195.5566,233.9050,0,U,14154,999,25200,.56775869E-4,.191E-5,0
UOSAT 2 (UO-11),1984-021B,2026-07-17T21:28:09.342912,14.90852514,.00092508,97.8078,164.1312,83.9796,276.2476,0,U,14781,999,26170,.59556283E-4,.531E-5,0
NOAA 9,1984-123A,2026-07-17T22:04:07.487904,14.17075399,.00135636,99.0982,226.2686,262.3314,169.0645,0,U,15427,999,14777,.41830881E-4,.37E-6,0
GEOSAT,1985-021A,2026-07-17T18:50:32.703072,14.39979574,.00018752,108.0408,145.1184,294.6273,65.4674,0,U,15595,999,16717,.42112065E-4,-.3E-7,0
EUTELSAT 1-F4 (ECS 4),1987-078B,2026-07-17T17:20:47.649408,0.98690699,.00098307,13.8067,341.9095,47.0360,303.9962,0,U,18351,999,12705,0,-.258E-5,0
PACSAT (AO-16),1990-005D,2026-07-17T14:44:34.649088,14.33945245,.0011368,98.8511,235.0055,138.1762,14.2615,0,U,20439,999,90629,.30274E-4,.38E-6,0
LUSAT (LO-19),1990-005G,2026-07-17T19:26:53.355264,14.34131167,.00126018,98.8847,221.4588,114.3508,245.8992,0,U,20442,999,90678,.26428864E-4,.27E-6,0
IRS-1B,1991-061A,2026-07-17T23:01:43.926816,13.97879425,.00231698,99.4120,207.6734,280.5611,97.2782,0,U,21688,999,67279,.23630545E-3,.288E-5,0
COSMOS 2197,1992-042A,2026-07-17T19:12:33.022080,12.64252847,.00122178,82.5918,209.3728,199.0079,333.5376,0,U,22034,999,56915,.2576615E-5,.11E-6,0
PEGASUS R/B,1993-009C,2026-07-17T12:18:53.668224,14.58001994,.0044278,24.9769,259.1768,74.0738,286.4647,0,U,22491,999,77406,.55892E-4,.469E-5,0
EYESAT A (AO-27),1993-061C,2026-07-17T15:02:03.180480,14.30949457,.00086194,98.6866,266.0266,19.0842,341.0662,0,U,22825,999,71135,.28071771E-4,.29E-6,0
ITAMSAT (IO-26),1993-061D,2026-07-17T22:42:37.236384,14.31377167,.00087605,98.6813,266.2668,1.3832,358.7374,0,U,22826,999,71171,.30204264E-4,.35E-6,0
RADIO ROSTO (RS15),1994-085A,2026-07-17T19:15:27.792864,11.27583566,.0157019,64.8150,253.7041,358.2286,1.8064,0,U,23439,999,29935,.29191595E-4,-.41E-6,0
JAS-2 (FO-29),1996-046B,2026-07-17T09:38:32.152128,13.53275797,.0350252,98.5218,43.1320,18.2236,343.1097,0,U,24278,999,47725,.16007E-4,-.19E-6,0
FORTE,1997-047A,2026-07-17T06:51:46.344384,14.27956010,.0024298,69.9546,306.0350,240.8662,119.0028,0,U,24920,999,50298,.51751E-4,.71E-6,0
NOAA 15,1998-030A,2026-07-17T23:08:00.080448,14.27154863,.00090342,98.5064,218.7645,255.5877,104.4301,0,U,25338,999,46568,.3140944E-4,.34E-6,0
TECHSAT 1B (GO-32),1998-043D,2026-07-17T21:37:26.819040,14.24433664,.00022597,99.0087,192.4369,110.8324,249.3096,0,U,25397,999,45570,.22605347E-4,.6E-7,0
ISS (ZARYA),1998-067A,2026-07-17T19:56:26.020608,15.49035972,.00067917,51.6316,148.4431,307.8623,52.1750,0,U,25544,999,57650,.77849885E-4,.3846E-4,0
ORSTED,1999-008B,2026-07-17T03:53:26.105280,14.51833890,.01335763,96.4800,98.8650,90.5262,271.1246,0,U,25635,999,44631,.74718932E-4,.307E-5,0
LANDSAT 7,1999-020A,2026-07-17T22:12:34.719840,14.63939828,.00015204,97.8591,201.1538,77.0187,304.6253,0,U,25682,999,45034,.39818876E-4,.164E-5,0
ORBCOMM FM36,1999-065E,2026-07-17T22:17:17.840544,14.39250755,.00038828,45.0396,13.6397,131.8647,228.2535,0,U,25984,999,39141,.16146093E-3,.362E-5,0
DMSP 5D-3 F15 (USA 147),1999-067A,2026-07-17T22:32:01.180320,14.17572464,.00088151,98.9948,237.8757,275.3540,205.4760,0,U,25991,999,37500,.50761781E-4,.57E-6,0
OPAL (OO-38),2000-004C,2026-07-17T19:01:23.737440,14.37974836,.00351963,100.1911,141.2611,309.4478,50.3591,0,U,26063,999,38768,.30965522E-4,.35E-6,0
IMAGE,2000-017A,2026-07-10T09:33:22.635360,1.68666826,.74160542,94.2468,315.6762,285.1805,9.7435,0,U,26113,999,16189,0,-.42E-6,0
CLUSTER II-FM7 (SAMBA),2000-041A,2026-07-16T03:20:59.007840,0.44844033,.90886903,149.8273,56.2567,273.7641,359.2168,0,U,26410,999,2044,0,.51232E-3,-.58450349E-4
CLUSTER II-FM8 (TANGO),2000-045B,2026-07-16T16:51:02.549376,0.44420127,.90937027,150.0212,57.4640,274.8348,1.9953,0,U,26464,999,2044,0,.47405E-3,-.54218645E-4
MEGSAT-1,2000-057B,2026-07-17T18:22:23.927808,15.05638887,.00431429,64.5497,331.1119,280.4002,79.2254,0,U,26546,999,40226,.9743767E-4,.1253E-4,0
PHASE 3D (AO-40),2000-072B,2026-07-17T12:04:17.838336,1.25588934,.79333746,9.3865,346.1355,188.0210,139.6013,0,U,26609,999,11789,0,-.205E-5,0
ODIN,2001-007A,2026-07-17T01:38:28.151232,15.90578805,.0005205,97.3705,241.2154,152.9850,207.1695,0,U,26702,999,39412,.95322753E-3,.291443E-2,.33378932E-4
OMNI-M1,2001-026A,2026-07-15T12:15:20.524608,3.92402085,.00135289,44.8240,238.7352,57.8922,302.2996,0,U,26857,999,20668,0,.4E-7,0
PCSAT (NO-44),2001-043C,2026-07-17T13:00:24.645024,14.31965477,.0005892,67.0496,165.7597,266.8164,93.2264,0,U,26931,999,29479,.38081E-4,.19E-6,0
PROBA-1,2001-049B,2026-07-18T00:00:29.973024,15.07620817,.00554717,97.9601,208.6114,20.4830,339.8604,0,U,26958,999,34826,.48533658E-4,.692E-5,0
SPOT 5,2002-021A,2026-07-17T13:44:30.747840,14.54769399,.0129556,97.9835,236.0880,181.2985,178.7896,0,U,27421,999,26726,.44327E-4,.163E-5,0
FENGYUN 1D,2002-024B,2026-07-17T03:50:31.926336,14.10227987,.00158678,98.9505,248.3512,155.1467,205.0471,0,U,27431,999,24370,.21494128E-4,-.6E-7,0
SAUDISAT 1C (SO-50),2002-058C,2026-07-17T13:35:59.912160,14.83100826,.0074455,64.5519,34.9873,256.8352,102.4439,0,U,27607,999,26896,.58139E-4,.339E-5,0
CORIOLIS,2003-001A,2026-07-17T22:04:36.326496,14.19952315,.00150061,98.7135,205.3362,121.7722,238.4919,0,U,27640,999,21858,.38359112E-4,.38E-6,0
CUTE-1 (CO-55),2003-031E,2026-07-17T22:42:23.359680,14.24352549,.00108632,98.6744,207.1188,95.5982,264.6436,0,U,27844,999,19605,.75281132E-4,.13E-5,0
CUBESAT XI-IV (CO-57),2003-031J,2026-07-17T22:48:02.109024,14.23635431,.00106323,98.6776,206.8106,112.1739,248.0569,0,U,27848,999,19575,.66203101E-4,.107E-5,0
MOZHAETS 4 (RS22),2003-042A,2026-07-17T23:47:44.816352,14.73518823,.00114299,98.3471,24.2220,164.4046,350.7475,0,U,27939,999,22008,.15288169E-3,.941E-5,0
IRS-P6 (RESOURCESAT-1),2003-046A,2026-07-17T23:07:27.106752,14.36170913,.00627989,98.1885,233.9689,249.5526,227.4380,0,U,28051,999,18494,-.15939347E-4,-.89E-6,0
SAUDISAT 2,2004-025F,2026-07-17T22:32:09.339936,14.56699089,.00242274,98.5522,199.7176,199.5876,160.4393,0,U,28371,999,17022,.31108432E-4,.9E-6,0
COSMOS 2407,2004-028A,2026-07-17T02:26:47.215104,13.76336665,.0039483,82.9585,52.6742,166.7389,312.7566,0,U,28380,999,10399,.22478E-4,.38E-6,0
COSMOS 2414,2005-002A,2026-07-17T21:17:21.901920,13.87928554,.00388623,82.9490,20.4181,240.8542,118.8730,0,U,28521,999,8807,.20859808E-4,.4E-6,0
INMARSAT 4-F1,2005-009A,2026-07-17T20:57:48.348000,1.00271594,.00026413,5.2093,42.7939,72.5469,312.8867,0,U,28628,999,7798,0,.22E-6,0
HAMSAT (VO-52),2005-017B,2026-07-17T00:16:52.068864,15.09968852,.00175035,97.9899,222.3506,297.5397,62.4052,0,U,28650,999,15126,.16452946E-3,.2608E-4,0
